213P-B/Van Ness,e,10.3808,5.7372,311.3361,3.345139,0.1610953,0.40809778,11.3271,01/22.0/2024,2000,g 17.0,4.0
# From MPC 76570
213P-C/Van Ness,e,10.3783,5.7187,311.3371,3.344476,0.1611432,0.40793224,11.5992,01/22.0/2024,2000,g 17.5,4.0
# From MPC 92986
214P/LINEAR,e,15.1848,348.2243,190.1530,3.618135,0.1432112,0.48587226,69.1519,01/22.0/2024,2000,g 13.0,4.0
# From MPEC 2024-B57
215P/NEAT,e,10.5765,56.6735,262.4187,4.333152,0.1092693,0.16552904,166.7198,01/22.0/2024,2000,g 11.0,4.0
# From MPEC 2024-B57
216P/LINEAR,e,9.0632,359.7986,151.7317,3.857918,0.1300692,0.44864817,1.9680,01/22.0/2024,2000,g 13.0,4.0
# From MPEC 2023-J29
217P/LINEAR,e,12.8630,125.3881,247.0017,3.946899,0.1256956,0.68926590,298.5501,01/22.0/2024,2000,g 12.0,4.0
# From MPEC 2022-K19
218P/LINEAR,e,2.7290,175.8457,59.6950,3.082636,0.1821045,0.62611163,219.1114,01/22.0/2024,2000,g 16.0,4.0
# From MPEC 2023-W26
219P/LINEAR,e,11.5400,230.9535,107.6236,3.644871,0.1416383,0.35393016,356.7680,01/22.0/2024,2000,g 11.0,4.0
# From MPEC 2024-A43
220P/McNaught,e,8.1245,150.1053,180.6144,3.118769,0.1789490,0.50085688,203.6143,01/22.0/2024,2000,g 15.0,4.0
# From MPEC 2022-UY9
221P/LINEAR,e,11.5126,229.5888,39.6416,3.443050,0.1542727,0.49842264,117.6747,01/22.0/2024,2000,g 14.5,4.0
# From MPC 92277
222P/LINEAR,e,5.0962,6.7859,346.2811,2.897641,0.1998192,0.71469489,337.6417,01/22.0/2024,2000,g 20.0,4.0
# From MPEC 2023-A50
223P/Skiff,e,27.0139,346.7471,37.9213,4.158337,0.1162317,0.41655554,211.3263,01/22.0/2024,2000,g 12.0,4.0
# From MPEC 2023-BF4
224P/LINEAR-NEAT,e,13.3057,40.0375,16.7382,3.445140,0.1541323,0.40588163,73.8125,01/22.0/2024,2000,g 15.5,4.0
# From MPEC 2024-AF0
225P/LINEAR,e,21.3659,14.2024,3.9019,3.647832,0.1414659,0.63848431,23.6208,01/22.0/2024,2000,g 18.0,4.0
# From MPEC 2024-B57
226P/Pigott-LINEAR-Kowalski,e,44.0458,54.0120,341.0633,3.768069,0.1347491,0.52926908,3.4746,01/22.0/2024,2000,g 12.5,4.0
# From MPEC 2024-B57
227P/Catalina-LINEAR,e,7.5086,36.8087,105.5662,3.435860,0.1547572,0.52744548,352.8434,01/22.0/2024,2000,g 16.5,2.0
# From MPEC 2022-HC2
228P/LINEAR,e,7.9133,30.9790,114.7475,4.164808,0.1159609,0.17670874,164.1083,01/22.0/2024,2000,g 14.1,4.0
# From MPC106349
229P/Gibbs,e,26.0988,157.9366,224.1084,3.924274,0.1267842,0.37798009,308.1910,01/22.0/2024,2000,g 13.0,4.0
# From MPEC 2023-KD6
230P/LINEAR,e,15.4685,106.9529,313.5133,3.453935,0.1535440,0.54566827,103.4110,01/22.0/2024,2000,g 13.0,4.0
# From MPEC 2023-SQ0
231P/LINEAR-NEAT,e,12.2767,132.8847,44.1040,4.053330,0.1207775,0.24102603,203.9008,01/22.0/2024,2000,g 14.5,2.0
# From MPC112394
232P/Hill,e,14.6443,56.0296,53.2133,4.472801,0.1041921,0.33546304,182.4522,01/22.0/2024,2000,g 11.5,4.0
# From MPEC 2021-N06
233P/La Sagra,e,11.2888,74.9009,26.9811,3.027486,0.1871030,0.41265882,225.8019,01/22.0/2024,2000,g 15.0,4.0
# From MPEC 2022-K19
234P/LINEAR,e,11.5355,179.5670,357.4119,3.795636,0.1332838,0.25678079,323.2729,01/22.0/2024,2000,g 12.0,4.0
# From MPC110497
235P/LINEAR,e,9.7841,204.3597,347.0605,3.516495,0.1494649,0.41008258,252.5379,01/22.0/2024,2000,g 12.0,4.0
# From MPEC 2023-J29
236P/LINEAR,e,16.3552,245.5689,119.3877,3.726298,0.1370212,0.50934222,308.1051,01/22.0/2024,2000,g 14.0,4.0
# From MPEC 2024-B57
237P/LINEAR,e,14.0167,245.3573,25.2799,3.510310,0.1498600,0.43388736,37.8084,01/22.0/2024,2000,g 14.5,2.0
# From MPEC 2023-UR6
238P/Read,e,1.2640,51.6298,324.2373,3.165814,0.1749750,0.25122098,104.2152,01/22.0/2024,2000,g 14.5,4.0
# From MPEC 2021-F20
239P/LINEAR,e,11.3075,255.9451,220.3433,4.465936,0.1044324,0.63093220,191.9593,01/22.0/2024,2000,g 17.5,2.0
# From MPEC 2023-CD7
240P/NEAT,e,23.5365,74.9151,351.9979,3.862379,0.1298440,0.45025278,269.3826,01/22.0/2024,2000,g 11.0,4.0
# From MPEC 2022-J42
241P/LINEAR,e,21.0964,305.4742,111.5001,4.924417,0.0901928,0.61046306,82.0614,01/22.0/2024,2000,g 13.5,4.0
# From MPEC 2024-B57
242P/Spahr,e,32.4723,180.3721,244.9042,5.525362,0.0758862,0.28124425,334.4492,01/22.0/2024,2000,g  8.0,4.0
# From MPEC 2022-K19
243P/NEAT,e,7.6432,87.6505,283.6474,3.828791,0.1315563,0.36059978,259.3313,01/22.0/2024,2000,g 12.5,4.0
# From MPEC 2024-B57
244P/Scotti,e,2.2589,354.0057,93.2495,4.899832,0.0908725,0.19973924,39.0397,01/22.0/2024,2000,g  9.0,4.0
# From MPEC 2022-CN4
245P/WISE,e,21.1782,316.8899,316.5724,4.049645,0.1209424,0.45571554,263.3170,01/22.0/2024,2000,g 14.0,4.0
# From MPEC 2024-AF0
246P/NEAT,e,16.7055,75.6587,181.2337,4.067013,0.1201685,0.28733113,126.9099,01/22.0/2024,2000,g 10.5,4.0
# From MPEC 2021-F20
247P/LINEAR,e,13.6592,54.0115,47.4331,3.966043,0.1247866,0.62521936,234.2002,01/22.0/2024,2000,g 16.5,2.0
# From MPC 75730
248P/Gibbs,e,6.3513,207.8197,209.9153,5.986333,0.0672919,0.63934381,319.5003,01/22.0/2024,2000,g 14.0,4.0
# From MPEC 2022-YN2
249P/LINEAR,e,8.3854,239.0478,65.7535,2.764309,0.2144491,0.81940292,279.2195,01/22.0/2024,2000,g 15.5,4.0
# From MPC110497
250P/Larson,e,13.1554,73.2943,45.9760,3.773603,0.1344527,0.39870349,295.2750,01/22.0/2024,2000,g 14.5,4.0
# From MPC104795
251P/LINEAR,e,23.3871,219.3230,31.2412,3.513978,0.1496255,0.50446756,356.6732,01/22.0/2024,2000,g 16.5,2.0
# From MPEC 2021-S45
252P/LINEAR,e,10.4155,190.9085,343.3908,3.051234,0.1849229,0.67083018,171.1512,01/22.0/2024,2000,g 17.5,4.0
# From MPEC 2020-FB5
253P/PANSTARRS,e,4.9452,146.9096,230.7514,3.462518,0.1529734,0.41458921,318.2472,01/22.0/2024,2000,g 14.5,4.0
# From MPEC 2024-B57
254P/McNaught,e,32.5524,129.1879,219.7318,4.617988,0.0993173,0.31919503,120.0619,01/22.0/2024,2000,g 11.0,4.0
# From NK 2214
255P/Levy,e,13.3990,275.6396,186.0316,2.942470,0.1952703,0.71180119,97.8988,01/22.0/2024,2000,g  9.0,4.0
# From MPEC 2023_O39
256P/LINEAR,e,27.6230,81.3273,124.1567,4.638171,0.0986697,0.41788452,31.1699,01/22.0/2024,2000,g 14.0,2.0
# From MPEC 2023-A50
257P/Catalina,e,20.2196,207.7145,117.7859,3.765926,0.1348641,0.42940099,165.7505,01/22.0/2024,2000,g 11.5,4.0
# From MPEC 2021-U31
258P/PANSTARRS,e,6.7492,126.2320,25.6278,4.391573,0.1070962,0.20883819,140.7153,01/22.0/2024,2000,g 13.0,4.0
# From MPC106349
259P/Garradd,e,15.8985,51.3714,257.5522,2.728818,0.2186464,0.33882578,155.9048,01/22.0/2024,2000,g 15.5,4.0
# From MPEC 2022-O01
260P/McNaught,e,15.0517,349.3407,18.4638,3.623434,0.1428972,0.60916767,227.7316,01/22.0/2024,2000,g 13.5,4.0
# From MPEC 2021-J28
261P/Larson,e,6.0719,291.0709,67.3353,3.490412,0.1511434,0.42311915,253.4171,01/22.0/2024,2000,g 14.0,4.0
# From MPC 82322
262P/McNaught-Russell,e,29.2779,217.8887,171.0567,6.870022,0.0547352,0.81637408,222.2314,01/22.0/2024,2000,g 13.5,4.0
# From MPEC 2023_O39
263P/Gibbs,e,11.5233,105.5019,35.0372,3.041540,0.1858077,0.59365257,66.2216,01/22.0/2024,2000,g 18.0,4.0
# From MPC114608
264P/Larsen,e,25.9467,219.6431,342.9345,3.964731,0.1248485,0.35509891,217.1693,01/22.0/2024,2000,g 13.0,4.0
# From MPC 79870
265P/LINEAR,e,14.3568,342.9514,33.5061,4.258656,0.1121490,0.64738845,120.7585,01/22.0/2024,2000,g 14.5,4.0
# From MPEC 2021-F20
266P/Christensen,e,3.4271,4.9707,97.6911,3.529861,0.1486167,0.34049805,203.8870,01/22.0/2024,2000,g 14.7,4.0
# From MPC114608
267P/LONEOS,e,6.1430,228.6029,114.2264,3.209141,0.1714435,0.61423498,343.9171,01/22.0/2024,2000,g 19.5,4.0
# From MPC 92277
268P/Bernardi,e,15.6282,124.8154,359.9205,4.636887,0.0987107,0.47327129,327.3605,01/22.0/2024,2000,g 14.0,4.0
# From MPEC 2023-J29
269P/Jedicke,e,7.0841,241.7693,225.6627,7.063420,0.0525027,0.43261767,178.3756,01/22.0/2024,2000,g 10.0,4.0
# From MPC 88332
270P/Gehrels,e,2.9251,223.0355,209.8220,6.653964,0.0574227,0.46983696,222.2990,01/22.0/2024,2000,g  8.0,4.0
# From MPC 92277
271P/van Houten-Lemmon,e,6.8712,9.3313,36.4837,7.033321,0.0528401,0.39613442,202.6032,01/22.0/2024,2000,g 11.0,4.0
# From MPEC 2023-D41
272P/NEAT,e,18.0754,109.4482,27.8857,4.461883,0.1045747,0.45509154,57.9288,01/22.0/2024,2000,g 16.0,2.0
# From MPC 82723
273P/Pons-Gambart,e,136.6025,320.4090,20.2264,31.99671,0.0054456,0.97435479,0.0000,12/21.8707/2012,2000,g 11.5,4.0
# From MPEC 2023-M14
274P/Tombaugh-Tenagra,e,15.8188,81.3194,38.4723,4.377899,0.1075983,0.43987397,70.3067,01/22.0/2024,2000,g 13.9,4.0
# From MPC 81862
275P/Hermann,e,21.2607,348.6969,173.9332,5.787384,0.0707914,0.71328646,288.4552,01/22.0/2024,2000,g 17.0,4.0
# From MPEC 2024-B57
276P/Vorobjov,e,14.8127,211.3393,199.3671,5.333633,0.0800146,0.26907629,334.0257,01/22.0/2024,2000,g 11.5,4.0
# From MPEC 2021-F20
277P/LINEAR,e,16.7860,276.2750,152.3806,3.853539,0.1302910,0.50641156,145.5510,01/22.0/2024,2000,g 15.1,4.0
# From MPEC 2021-S45
278P/McNaught,e,6.6827,15.2585,237.4767,3.673297,0.1399974,0.43954289,171.6871,01/22.0/2024,2000,g 14.0,4.0
# From MPEC 2024-A43
279P/LaSagra,e,5.0489,346.1764,5.8006,3.574503,0.1458413,0.39936154,40.4976,01/22.0/2024,2000,g 14.0,4.0
# From MPEC 2023-J95
280P/Larsen,e,11.7728,131.3763,104.7255,4.528205,0.1022857,0.41697033,17.4241,01/22.0/2024,2000,g 12.5,4.0
# From MPEC 2023-D41
281P/MOSS,e,4.7177,87.1711,26.7391,4.881703,0.0913791,0.17349731,32.3345,01/22.0/2024,2000,g 11.0,4.0
# From MPC133426
282P/,e,5.8120,217.6182,9.2449,4.237092,0.1130062,0.18775205,92.6656,01/22.0/2024,2000,g 13.5,2.0
# From MPEC 2022-K19
283P/Spacewatch,e,14.4588,161.1221,22.1794,4.133751,0.1172702,0.48440097,101.5903,01/22.0/2024,2000,g 16.0,2.0
# From MPEC 2023-D41
284P/McNaught,e,11.8582,144.2685,202.4701,3.677302,0.1397688,0.37496496,120.4300,01/22.0/2024,2000,g 13.0,4.0
# From MPEC 2023-B57
285P/LINEAR,e,25.0373,185.5037,178.3895,4.506388,0.1030294,0.61848913,38.6179,01/22.0/2024,2000,g 15.0,4.0
# From MPEC 2024-B57
286P/Christensen,e,17.0832,283.6816,24.7847,4.105597,0.1184785,0.42673215,73.4453,01/22.0/2024,2000,g 14.0,4.0
# From MPEC 2024-A43
287P/Christensen,e,16.3184,139.0345,189.2150,4.166325,0.1158976,0.27167096,23.1243,01/22.0/2024,2000,g 13.5,4.0
# From MPC133426
288P/,e,3.2383,83.1069,280.2786,3.048886,0.1851366,0.20023341,127.9947,01/22.0/2024,2000,g 16.0,2.0
# From MPEC 2023-HD1
289P/Blanpain,e,5.9003,68.8925,9.8544,3.044594,0.1855282,0.68636484,276.8199,01/22.0/2024,2000,g 19.7,4.0
# From MPC 95214
